COSMOS 2419 (714)       
1 28915U 05050A   17107.74423799  .00000010  00000-0  00000-0 0  9997
2 28915  65.4689  67.8875 0017365 347.0534 163.4090  2.13110264 88047
COSMOS 2425 (716)       
1 29670U 06062A   17107.67292953  .00000008  00000-0  10000-3 0  9999
2 29670  65.4912 306.9017 0022068 351.3501 157.3671  2.13104855 80248
COSMOS 2426 (717)       
1 29671U 06062B   17107.76208339  .00000009  00000-0  10000-3 0  9996
2 29671  65.5089 306.9874 0016752 157.4365 278.4442  2.13102897 80258
COSMOS 2424 (715)       
1 29672U 06062C   17107.60416032  .00000008  00000-0  10000-3 0  9990
2 29672  65.4927 306.9156 0016289 156.0326 334.1420  2.13102114 80246
COSMOS 2433 (720)       
1 32275U 07052A   17107.72729505  .00000010  00000-0  10000-3 0  9991
2 32275  65.4836  67.6649 0004863 289.3366  93.2567  2.13104662 73769
COSMOS 2432 (719)       
1 32276U 07052B   17107.49134050  .00000009  00000-0  10000-3 0  9999
2 32276  65.4954  67.7427 0014029 331.5032 183.0762  2.13104052 73758
COSMOS 2434 (721)       
1 32393U 07065A   17107.96180213  .00000011  00000-0  00000-0 0  9996
2 32393  65.1070 306.0703 0005719  92.0855   0.3100  2.13102804 72476
COSMOS 2436 (723)       
1 32395U 07065C   17107.73848337  .00000009  00000-0  10000-3 0  9992
2 32395  65.1164 306.1235 0016224   7.1081 322.3491  2.13104202 72399
COSMOS 2443 (725)       
1 33379U 08046B   17106.81662806  .00000004  00000-0  00000-0 0  9999
2 33379  65.4129  67.0846 0015718 187.4227 117.9572  2.13101971 66591
COSMOS 2456 (730)       
1 36111U 09070A   17107.63816980  .00000007  00000-0  00000-0 0  9992
2 36111  64.1784 185.6466 0004718 310.2230  64.7732  2.13102821 57136
COSMOS 2457 (733)       
1 36112U 09070B   17107.52141475  .00000007  00000-0  00000-0 0  9991
2 36112  64.1603 185.5707 0006358 172.1960 242.0737  2.13101505 57135
COSMOS 2458 (734)       
1 36113U 09070C   17107.42276411  .00000007  00000-0  10000-3 0  9994
2 36113  64.1658 185.5816 0001417 349.2536  37.2287  2.13102077 57133
COSMOS 2459 (731)       
1 36400U 10007A   17107.88965758  .00000009  00000-0  10000-3 0  9996
2 36400  65.3923  66.7723 0029738 349.3724  20.3598  2.13102247 55497
COSMOS 2461 (735)       
1 36401U 10007B   17107.66189895  .00000008  00000-0  10000-3 0  9992
2 36401  65.3852  66.7591 0005935  43.5130  62.0823  2.13102239 55483
COSMOS 2460 (732)       
1 36402U 10007C   17107.58851063  .00000007  00000-0  10000-3 0  9996
2 36402  65.3753  66.7352 0002797 316.8436 133.8547  2.13101737 55489
COSMOS 2465 (737)       
1 37138U 10041B   17107.74124610  .00000008  00000-0  00000-0 0  9997
2 37138  64.7050 306.0957 0034558 168.8283 158.7697  2.13107243 51559
COSMOS 2464 (736)       
1 37139U 10041C   17107.57218344  .00000006  00000-0  00000-0 0  9995
2 37139  64.7147 306.1009 0024683  16.2388   4.9954  2.13102571 51553
COSMOS 2471 (701K)      
1 37372U 11009A   17107.63179013  .00000008  00000-0  00000-0 0  9997
2 37372  65.3725  66.6816 0008577 247.2821  11.4844  2.13107658 47756
COSMOS 2474 (742)       
1 37829U 11055A   17107.68803247  .00000007  00000-0  00000-0 0  9992
2 37829  64.5034 186.1842 0008726 249.4136  23.8959  2.13101873 43127
COSMOS 2476 (744)       
1 37867U 11064A   17107.75687012  .00000007  00000-0  00000-0 0  9992
2 37867  64.4829 186.2558 0017982 244.5888 127.4561  2.13101982 42488
COSMOS 2477 (745)       
1 37868U 11064B   17107.60839862  .00000007  00000-0  00000-0 0  9999
2 37868  64.4910 186.3036 0015865 245.8146 191.4845  2.13101771 42438
COSMOS 2475 (743)       
1 37869U 11064C   17107.62495454  .00000007  00000-0  00000-0 0  9997
2 37869  64.4983 186.2938 0020762 271.8714 134.4853  2.13101836 42440
COSMOS 2485 (747)       
1 39155U 13019A   17107.74632711  .00000007  00000-0  00000-0 0  9991
2 39155  64.6524 186.2721 0018322 239.4690 169.5289  2.13101946 30952
COSMOS 2492 (754)       
1 39620U 14012A   17107.65317898  .00000007  00000-0  10000-3 0  9992
2 39620  65.2652  66.6781 0017480 328.8221  42.7407  2.13103387 23904
COSMOS 2500 (755)       
1 40001U 14032A   17107.48970539  .00000007  00000-0  00000-0 0  9993
2 40001  65.2055  66.6830 0005731 233.2619 236.0401  2.13102813 22114
COSMOS 2501 (702K)      
1 40315U 14075A   17107.67121841  .00000004  00000-0  00000-0 0  9990
2 40315  64.4410 307.4615 0013497 206.1288 209.2813  2.13098444 18527
COSMOS 2514 (751)       
1 41330U 16008A   17107.75017086  .00000008  00000-0  00000-0 0  9994
2 41330  65.0065  66.8355 0009253 233.4882 255.4733  2.13103362  9286
COSMOS 2516 (753)       
1 41554U 16032A   17107.40543623  .00000003  00000-0  00000-0 0  9997
2 41554  64.6580 307.2180 0009444 217.3921 260.0337  2.13101702  6887
